[{"OBJECT_NAME":"ONEWEB-0380","OBJECT_ID":"2021-090AD","EPOCH":"2025-12-03T06:35:19.407552","MEAN_MOTION":13.19723858,"ECCENTRICITY":0.00015933,"INCLINATION":87.9199,"RA_OF_ASC_NODE":343.9576,"ARG_OF_PERICENTER":93.8362,"MEAN_ANOMALY":266.2953,"EPHEMERIS_TYPE":0,"CLASSIFICATION_TYPE":"U","NORAD_CAT_ID":49306,"ELEMENT_SET_NO":999,"REV_AT_EPOCH":20058,"BSTAR":9.977417e-5,"MEAN_MOTION_DOT":5.3e-7,"MEAN_MOTION_DDOT":0},{"OBJECT_NAME":"ONEWEB-0381","OBJECT_ID":"2021-090AE","EPOCH":"2025-12-03T07:50:53.246688","MEAN_MOTION":13.2076947,"ECCENTRICITY":0.00016656,"INCLINATION":87.9188,"RA_OF_ASC_NODE":313.4989,"ARG_OF_PERICENTER":91.9175,"MEAN_ANOMALY":268.215,"EPHEMERIS_TYPE":0,"CLASSIFICATION_TYPE":"U","NORAD_CAT_ID":49307,"ELEMENT_SET_NO":999,"REV_AT_EPOCH":20397,"BSTAR":-0.00013132184,"MEAN_MOTION_DOT":-4.0e-7,"MEAN_MOTION_DDOT":0},{"OBJECT_NAME":"ONEWEB-0382","OBJECT_ID":"2021-090AF","EPOCH":"2025-12-03T07:32:42.802656","MEAN_MOTION":13.20773374,"ECCENTRICITY":0.00017853,"INCLINATION":87.9195,"RA_OF_ASC_NODE":313.4968,"ARG_OF_PERICENTER":95.5578,"MEAN_ANOMALY":264.5759,"EPHEMERIS_TYPE":0,"CLASSIFICATION_TYPE":"U","NORAD_CAT_ID":49308,"ELEMENT_SET_NO":999,"REV_AT_EPOCH":20396,"BSTAR":-3.9854394e-5,"MEAN_MOTION_DOT":-3.0e-8,"MEAN_MOTION_DDOT":0},{"OBJECT_NAME":"ONEWEB-0383","OBJECT_ID":"2021-090AG","EPOCH":"2025-12-03T06:09:27.793152","MEAN_MOTION":13.14503055,"ECCENTRICITY":0.00018516,"INCLINATION":87.8987,"RA_OF_ASC_NODE":328.7256,"ARG_OF_PERICENTER":92.9392,"MEAN_ANOMALY":267.195,"EPHEMERIS_TYPE":0,"CLASSIFICATION_TYPE":"U","NORAD_CAT_ID":49309,"ELEMENT_SET_NO":999,"REV_AT_EPOCH":20185,"BSTAR":-0.00020856235,"MEAN_MOTION_DOT":-6.5e-7,"MEAN_MOTION_DDOT":0},{"OBJECT_NAME":"ONEWEB-0384","OBJECT_ID":"2021-090AH","EPOCH":"2025-12-03T05:34:25.620672","MEAN_MOTION":13.20797978,"ECCENTRICITY":0.0001943,"INCLINATION":87.9204,"RA_OF_ASC_NODE":313.5482,"ARG_OF_PERICENTER":101.1352,"MEAN_ANOMALY":259,"EPHEMERIS_TYPE":0,"CLASSIFICATION_TYPE":"U","NORAD_CAT_ID":49310,"ELEMENT_SET_NO":999,"REV_AT_EPOCH":20396,"BSTAR":-0.00011163618,"MEAN_MOTION_DOT":-3.2e-7,"MEAN_MOTION_DDOT":0},{"OBJECT_NAME":"ONEWEB-0385","OBJECT_ID":"2021-090AJ","EPOCH":"2025-12-03T07:21:19.828800","MEAN_MOTION":13.20772799,"ECCENTRICITY":0.00017805,"INCLINATION":87.9185,"RA_OF_ASC_NODE":313.5041,"ARG_OF_PERICENTER":90.8761,"MEAN_ANOMALY":269.2576,"EPHEMERIS_TYPE":0,"CLASSIFICATION_TYPE":"U","NORAD_CAT_ID":49311,"ELEMENT_SET_NO":999,"REV_AT_EPOCH":20394,"BSTAR":5.537451e-5,"MEAN_MOTION_DOT":3.5e-7,"MEAN_MOTION_DDOT":0},{"OBJECT_NAME":"ONEWEB-0386","OBJECT_ID":"2021-090AK","EPOCH":"2025-12-03T07:46:20.438688","MEAN_MOTION":13.20769383,"ECCENTRICITY":0.00018682,"INCLINATION":87.9193,"RA_OF_ASC_NODE":313.4838,"ARG_OF_PERICENTER":93.53,"MEAN_ANOMALY":266.6047,"EPHEMERIS_TYPE":0,"CLASSIFICATION_TYPE":"U","NORAD_CAT_ID":49312,"ELEMENT_SET_NO":999,"REV_AT_EPOCH":20396,"BSTAR":-8.3184315e-5,"MEAN_MOTION_DOT":-2.1e-7,"MEAN_MOTION_DDOT":0},{"OBJECT_NAME":"ONEWEB-0387","OBJECT_ID":"2021-090AL","EPOCH":"2025-12-03T07:23:40.333344","MEAN_MOTION":13.20791542,"ECCENTRICITY":0.00016043,"INCLINATION":87.9184,"RA_OF_ASC_NODE":313.5332,"ARG_OF_PERICENTER":88.5907,"MEAN_ANOMALY":271.541,"EPHEMERIS_TYPE":0,"CLASSIFICATION_TYPE":"U","NORAD_CAT_ID":49313,"ELEMENT_SET_NO":999,"REV_AT_EPOCH":20396,"BSTAR":0.00034996136,"MEAN_MOTION_DOT":1.55e-6,"MEAN_MOTION_DDOT":0},{"OBJECT_NAME":"ONEWEB-0388","OBJECT_ID":"2021-090AM","EPOCH":"2025-12-03T06:28:29.318592","MEAN_MOTION":13.19723321,"ECCENTRICITY":0.00018028,"INCLINATION":87.919,"RA_OF_ASC_NODE":343.9603,"ARG_OF_PERICENTER":95.225,"MEAN_ANOMALY":264.9088,"EPHEMERIS_TYPE":0,"CLASSIFICATION_TYPE":"U","NORAD_CAT_ID":49314,"ELEMENT_SET_NO":999,"REV_AT_EPOCH":20057,"BSTAR":-2.2913445e-5,"MEAN_MOTION_DOT":4.0e-8,"MEAN_MOTION_DDOT":0},{"OBJECT_NAME":"ONEWEB-0389","OBJECT_ID":"2021-132A","EPOCH":"2025-12-03T04:58:43.946976","MEAN_MOTION":13.17647918,"ECCENTRICITY":0.00016225,"INCLINATION":87.9128,"RA_OF_ASC_NODE":44.8419,"ARG_OF_PERICENTER":114.3479,"MEAN_ANOMALY":245.7822,"EPHEMERIS_TYPE":0,"CLASSIFICATION_TYPE":"U","NORAD_CAT_ID":50469,"ELEMENT_SET_NO":999,"REV_AT_EPOCH":19227,"BSTAR":0.00016923538,"MEAN_MOTION_DOT":7.9e-7,"MEAN_MOTION_DDOT":0},{"OBJECT_NAME":"ONEWEB-0390","OBJECT_ID":"2021-132B","EPOCH":"2025-12-03T05:01:10.455456","MEAN_MOTION":13.17648472,"ECCENTRICITY":0.00015099,"INCLINATION":87.9119,"RA_OF_ASC_NODE":44.844,"ARG_OF_PERICENTER":94.686,"MEAN_ANOMALY":265.4444,"EPHEMERIS_TYPE":0,"CLASSIFICATION_TYPE":"U","NORAD_CAT_ID":50470,"ELEMENT_SET_NO":999,"REV_AT_EPOCH":19227,"BSTAR":0.00018901696,"MEAN_MOTION_DOT":8.6e-7,"MEAN_MOTION_DDOT":0},{"OBJECT_NAME":"ONEWEB-0391","OBJECT_ID":"2021-132C","EPOCH":"2025-12-03T05:03:35.910720","MEAN_MOTION":13.17648654,"ECCENTRICITY":0.00011293,"INCLINATION":87.9117,"RA_OF_ASC_NODE":44.853,"ARG_OF_PERICENTER":129.6845,"MEAN_ANOMALY":230.4386,"EPHEMERIS_TYPE":0,"CLASSIFICATION_TYPE":"U","NORAD_CAT_ID":50471,"ELEMENT_SET_NO":999,"REV_AT_EPOCH":19227,"BSTAR":0.00027644544,"MEAN_MOTION_DOT":1.2e-6,"MEAN_MOTION_DDOT":0},{"OBJECT_NAME":"ONEWEB-0392","OBJECT_ID":"2021-132D","EPOCH":"2025-12-03T03:57:59.452416","MEAN_MOTION":13.17647331,"ECCENTRICITY":0.00015109,"INCLINATION":87.9126,"RA_OF_ASC_NODE":44.8138,"ARG_OF_PERICENTER":113.8337,"MEAN_ANOMALY":246.2953,"EPHEMERIS_TYPE":0,"CLASSIFICATION_TYPE":"U","NORAD_CAT_ID":50472,"ELEMENT_SET_NO":999,"REV_AT_EPOCH":19230,"BSTAR":0.00014646319,"MEAN_MOTION_DOT":7.0e-7,"MEAN_MOTION_DDOT":0},{"OBJECT_NAME":"ONEWEB-0393","OBJECT_ID":"2021-132E","EPOCH":"2025-12-03T05:08:38.788512","MEAN_MOTION":13.17647469,"ECCENTRICITY":0.00016111,"INCLINATION":87.913,"RA_OF_ASC_NODE":44.8262,"ARG_OF_PERICENTER":107.3663,"MEAN_ANOMALY":252.7645,"EPHEMERIS_TYPE":0,"CLASSIFICATION_TYPE":"U","NORAD_CAT_ID":50473,"ELEMENT_SET_NO":999,"REV_AT_EPOCH":19230,"BSTAR":0.0002861314,"MEAN_MOTION_DOT":1.24e-6,"MEAN_MOTION_DDOT":0},{"OBJECT_NAME":"ONEWEB-0394","OBJECT_ID":"2021-132F","EPOCH":"2025-12-03T08:04:31.122048","MEAN_MOTION":13.18685033,"ECCENTRICITY":0.00017441,"INCLINATION":87.9193,"RA_OF_ASC_NODE":14.3379,"ARG_OF_PERICENTER":101.9964,"MEAN_ANOMALY":258.1364,"EPHEMERIS_TYPE":0,"CLASSIFICATION_TYPE":"U","NORAD_CAT_ID":50474,"ELEMENT_SET_NO":999,"REV_AT_EPOCH":19578,"BSTAR":-7.6290296e-5,"MEAN_MOTION_DOT":-1.7e-7,"MEAN_MOTION_DDOT":0},{"OBJECT_NAME":"ONEWEB-0395","OBJECT_ID":"2021-132G","EPOCH":"2025-12-03T05:41:11.071680","MEAN_MOTION":13.11415867,"ECCENTRICITY":0.00013884,"INCLINATION":87.886,"RA_OF_ASC_NODE":60.0977,"ARG_OF_PERICENTER":101.6151,"MEAN_ANOMALY":258.5133,"EPHEMERIS_TYPE":0,"CLASSIFICATION_TYPE":"U","NORAD_CAT_ID":50475,"ELEMENT_SET_NO":999,"REV_AT_EPOCH":19003,"BSTAR":0.00086406633,"MEAN_MOTION_DOT":3.19e-6,"MEAN_MOTION_DDOT":0},{"OBJECT_NAME":"ONEWEB-0396","OBJECT_ID":"2021-132H","EPOCH":"2025-12-03T04:16:29.512704","MEAN_MOTION":13.18685011,"ECCENTRICITY":0.00017503,"INCLINATION":87.9191,"RA_OF_ASC_NODE":14.3816,"ARG_OF_PERICENTER":100.2669,"MEAN_ANOMALY":259.866,"EPHEMERIS_TYPE":0,"CLASSIFICATION_TYPE":"U","NORAD_CAT_ID":50476,"ELEMENT_SET_NO":999,"REV_AT_EPOCH":19580,"BSTAR":0.00020237877,"MEAN_MOTION_DOT":9.3e-7,"MEAN_MOTION_DDOT":0},{"OBJECT_NAME":"ONEWEB-0397","OBJECT_ID":"2021-132J","EPOCH":"2025-12-03T08:16:23.940192","MEAN_MOTION":13.18686209,"ECCENTRICITY":0.00018436,"INCLINATION":87.9188,"RA_OF_ASC_NODE":14.3488,"ARG_OF_PERICENTER":102.2286,"MEAN_ANOMALY":257.9053,"EPHEMERIS_TYPE":0,"CLASSIFICATION_TYPE":"U","NORAD_CAT_ID":50477,"ELEMENT_SET_NO":999,"REV_AT_EPOCH":19580,"BSTAR":-4.4477966e-5,"MEAN_MOTION_DOT":-5.0e-8,"MEAN_MOTION_DDOT":0},{"OBJECT_NAME":"ONEWEB-0398","OBJECT_ID":"2021-132K","EPOCH":"2025-12-03T04:54:47.330208","MEAN_MOTION":13.11419599,"ECCENTRICITY":0.0001362,"INCLINATION":87.8872,"RA_OF_ASC_NODE":60.0759,"ARG_OF_PERICENTER":92.9096,"MEAN_ANOMALY":267.2188,"EPHEMERIS_TYPE":0,"CLASSIFICATION_TYPE":"U","NORAD_CAT_ID":50478,"ELEMENT_SET_NO":999,"REV_AT_EPOCH":18992,"BSTAR":-5.7271721e-5,"MEAN_MOTION_DOT":-8.0e-8,"MEAN_MOTION_DDOT":0},{"OBJECT_NAME":"ONEWEB-0399","OBJECT_ID":"2021-132L","EPOCH":"2025-12-03T04:35:15.329760","MEAN_MOTION":13.11417727,"ECCENTRICITY":0.00016527,"INCLINATION":87.8862,"RA_OF_ASC_NODE":60.0933,"ARG_OF_PERICENTER":122.7737,"MEAN_ANOMALY":237.3551,"EPHEMERIS_TYPE":0,"CLASSIFICATION_TYPE":"U","NORAD_CAT_ID":50479,"ELEMENT_SET_NO":999,"REV_AT_EPOCH":18991,"BSTAR":-0.0013810279,"MEAN_MOTION_DOT":-4.77e-6,"MEAN_MOTION_DDOT":0},{"OBJECT_NAME":"ONEWEB-0400","OBJECT_ID":"2021-132M","EPOCH":"2025-12-03T04:06:59.477472","MEAN_MOTION":13.18685679,"ECCENTRICITY":0.00016617,"INCLINATION":87.919,"RA_OF_ASC_NODE":14.3731,"ARG_OF_PERICENTER":91.1322,"MEAN_ANOMALY":269.0001,"EPHEMERIS_TYPE":0,"CLASSIFICATION_TYPE":"U","NORAD_CAT_ID":50480,"ELEMENT_SET_NO":999,"REV_AT_EPOCH":19577,"BSTAR":3.4899261e-5,"MEAN_MOTION_DOT":2.7e-7,"MEAN_MOTION_DDOT":0},{"OBJECT_NAME":"ONEWEB-0401","OBJECT_ID":"2021-132N","EPOCH":"2025-12-03T01:32:35.742048","MEAN_MOTION":13.18684079,"ECCENTRICITY":0.00019839,"INCLINATION":87.919,"RA_OF_ASC_NODE":14.391,"ARG_OF_PERICENTER":98.4405,"MEAN_ANOMALY":261.6952,"EPHEMERIS_TYPE":0,"CLASSIFICATION_TYPE":"U","NORAD_CAT_ID":50481,"ELEMENT_SET_NO":999,"REV_AT_EPOCH":19576,"BSTAR":0.00029375067,"MEAN_MOTION_DOT":1.29e-6,"MEAN_MOTION_DDOT":0},{"OBJECT_NAME":"ONEWEB-0402","OBJECT_ID":"2021-132P","EPOCH":"2025-12-03T02:29:36.390624","MEAN_MOTION":13.18685192,"ECCENTRICITY":0.00023905,"INCLINATION":87.919,"RA_OF_ASC_NODE":14.3758,"ARG_OF_PERICENTER":101.24,"MEAN_ANOMALY":258.9001,"EPHEMERIS_TYPE":0,"CLASSIFICATION_TYPE":"U","NORAD_CAT_ID":50482,"ELEMENT_SET_NO":999,"REV_AT_EPOCH":19579,"BSTAR":0.00013303324,"MEAN_MOTION_DOT":6.5e-7,"MEAN_MOTION_DDOT":0}]
